[{"OBJECT_NAME":"COSMO-SKYMED 3","OBJECT_ID":"2008-054A","EPOCH":"2026-03-09T22:03:15.183936","MEAN_MOTION":15.06259488,"ECCENTRICITY":0.00143526,"INCLINATION":97.8419,"RA_OF_ASC_NODE":285.8111,"ARG_OF_PERICENTER":240.3641,"MEAN_ANOMALY":119.6157,"EPHEMERIS_TYPE":0,"CLASSIFICATION_TYPE":"U","NORAD_CAT_ID":33412,"ELEMENT_SET_NO":999,"REV_AT_EPOCH":94199,"BSTAR":0.00061875413,"MEAN_MOTION_DOT":9.042e-5,"MEAN_MOTION_DDOT":0},{"OBJECT_NAME":"STARLINK-5382","OBJECT_ID":"2022-177A","EPOCH":"2026-03-09T22:00:01.999584","MEAN_MOTION":15.06469527,"ECCENTRICITY":0.00021824,"INCLINATION":42.9996,"RA_OF_ASC_NODE":132.3134,"ARG_OF_PERICENTER":270.654,"MEAN_ANOMALY":208.5569,"EPHEMERIS_TYPE":0,"CLASSIFICATION_TYPE":"U","NORAD_CAT_ID":54820,"ELEMENT_SET_NO":999,"REV_AT_EPOCH":577,"BSTAR":0.00073343055,"MEAN_MOTION_DOT":0.00010814,"MEAN_MOTION_DDOT":0}]
